TYVAK-0173              
1 48892U 21059P   26193.18105856  .00000858  00000+0  11223-3 0  9995
2 48892  96.0075 263.3250 0007446 312.4710  47.5878 14.81965976271948
MANDRAKE 2 ABLE         
1 48907U 21059AE  26193.52016880  .00015119  00000+0  21886-3 0  9990
2 48907  97.7025  25.2554 0003661 245.3247 114.7626 15.55996625281063
MANDRAKE 2 BAKER        
1 48908U 21059AF  26193.50346024  .00020477  00000+0  24644-3 0  9993
2 48908  97.6985  28.2904 0002461 231.4381 128.6655 15.60865564281241
PACE-1                  
1 48909U 21059AG  26191.99959182  .00083467  00000+0  36330-3 0  9993
2 48909  97.6745  32.9101 0003234 192.6042 167.5147 15.84551910281564
YAM-3                   
1 48915U 21059AN  26193.58690108  .00007632  00000+0  14238-3 0  9990
2 48915  97.6991  22.2126 0003829 255.4547 104.6279 15.49108672280922
FARADAY_PHOENIX         
1 48924U 21059AX  26193.51392935  .00147195  00000+0  58598-3 0  9996
2 48924  97.6770  34.5090 0005893 204.9834 155.1151 15.86233591281666
DEMO8 (TENZING)         
1 48951U 21059CA  26193.52339362  .00014100  00000+0  20447-3 0  9993
2 48951  97.7013  28.8895 0005582 243.2719 116.7964 15.55955231281246
FENGYUN 3E              
1 49008U 21062A   26193.64023977  .00000081  00000+0  58833-4 0  9990
2 49008  98.7500 196.7643 0002361  44.0338 316.1026 14.19906171260198
ISS (NAUKA)             
1 49044U 21066A   26193.41162669  .00004782  00000+0  94926-4 0  9996
2 49044  51.6301 175.2558 0006698 286.7033  73.3220 15.48989885610706
STARLINK-3100           
1 49144U 21082Q   26193.54258644 -.00000069  00000+0  20110-5 0  9998
2 49144  70.0005 339.6481 0003190 269.0178  91.0616 14.98328451264680
CUTE                    
1 49263U 21088D   26193.27225023  .01203122  96610-3  11367-2 0  9993
2 49263  97.3997 295.2353 0006640 305.9522  54.1146 16.12201761266564
2021-091B               
1 49316U 21091B   26193.62588281  .00001357  00000+0  68648-4 0  9998
2 49316  97.4479  20.8156 0012175 318.2341  41.7963 15.18673825262843
SDGSAT 1                
1 49387U 21100A   26193.65526789  .00002123  00000+0  10382-3 0  9998
2 49387  97.2626 239.6306 0009488 171.7883 188.3509 15.19232381259788
TEIKYOSAT-4 (OORURI)    
1 49396U 21102B   26193.57481562  .00001008  00000+0  66469-4 0  9999
2 49396  97.3666 222.0712 0011511 197.8215 162.2613 15.09592692256550
Z-SAT                   
1 49399U 21102E   26193.63649236  .00003125  00000+0  15439-3 0  9995
2 49399  97.3319 228.1875 0017325 153.1096 207.1041 15.18451624257303
HIBARI                  
1 49400U 21102F   26193.08782139  .00007172  00000+0  23231-3 0  9992
2 49400  97.3229 238.7127 0013321 110.8335 249.4335 15.32235957258009
KOSEN-1                 
1 49402U 21102H   26193.56714576  .00004528  00000+0  17209-3 0  9997
2 49402  97.3174 235.2343 0015310 115.8544 244.4276 15.27190020257899
GLOBAL-14               
1 49469U 21106A   26193.19665729  .00016087  00000+0  26617-3 0  9994
2 49469  42.0026 142.3164 0017290 204.0869 155.9168 15.51722687262017
GAOFEN-3 02             
1 49495U 21109A   26193.64933894 -.00000124  00000+0 -24562-4 0  9992
2 49495  98.4094 201.3843 0001342 281.9567  78.1472 14.42219454243987
GLOBAL-12               
1 49772U 21115BA  26193.53517080  .00024414  00000+0  36078-3 0  9990
2 49772  53.1953 282.5147 0002831  66.9953 293.1358 15.55217842259847
GLOBAL-13               
1 49773U 21115BB  26193.58153934  .00012018  00000+0  24201-3 0  9992
2 49773  53.1982 293.7797 0000886 154.1468 205.9586 15.47040560259693
GLOBAL-17               
1 49949U 21120A   26193.55662560  .00018358  00000+0  28355-3 0  9997
2 49949  41.9943 257.9699 0013411  70.2333 289.9957 15.53624572258848
GLOBAL-16               
1 49950U 21120B   26193.54089701  .00016457  00000+0  27624-3 0  9994
2 49950  41.9943 262.2834 0011564  59.6715 300.5272 15.51399124258785
XW-3 (CAS-9)            
1 50466U 21131B   26193.60066030  .00000289  00000+0  10287-3 0  9990
2 50466  98.4986 285.8536 0004742  37.5926 322.5593 14.41380603238779
ION SCV-004             
1 50993U 22002K   26193.60105576  .00003089  00000+0  10662-3 0  9990
2 50993  97.2823 250.7840 0005594 259.2728 100.7883 15.30692459249188
ETV-A1                  
1 51060U 22002CE  26193.59923006  .00007251  00000+0  17672-3 0  9993
2 51060  97.2872 259.8379 0003706 237.7792 122.3096 15.41199178249751
BRO-5                   
1 51061U 22002CF  26193.65399679  .00019263  00000+0  35995-3 0  9998
2 51061  97.2994 267.5714 0005099 213.2437 146.8495 15.48778426250198
LUDI TANCE 1-01A (L-SA*)
1 51284U 22007A   26193.59291329  .00000296  00000+0  37829-4 0  9991
2 51284  97.8111 200.6521 0001615  91.2115 268.9287 14.88417602242255
LUDI TANCE 1-01B (L-SA*)
1 51822U 22018A   26193.62652363  .00000325  00000+0  40884-4 0  9992
2 51822  97.8109 200.6833 0001624  91.2698 268.8704 14.88412125237490
