OBJECT_NAME,OBJECT_ID,EPOCH,MEAN_MOTION,ECCENTRICITY,INCLINATION,RA_OF_ASC_NODE,ARG_OF_PERICENTER,MEAN_ANOMALY,EPHEMERIS_TYPE,CLASSIFICATION_TYPE,NORAD_CAT_ID,ELEMENT_SET_NO,REV_AT_EPOCH,BSTAR,MEAN_MOTION_DOT,MEAN_MOTION_DDOT
TYVAK-0173,2021-059P,2026-07-12T04:20:43.459584,14.81965976,.00074461,96.0075,263.3250,312.4710,47.5878,0,U,48892,999,27194,.11222947E-3,.858E-5,0
MANDRAKE 2 ABLE,2021-059AE,2026-07-12T12:29:02.584320,15.55996625,.00036611,97.7025,25.2554,245.3247,114.7626,0,U,48907,999,28106,.21885582E-3,.15119E-3,0
MANDRAKE 2 BAKER,2021-059AF,2026-07-12T12:04:58.964736,15.60865564,.00024618,97.6985,28.2904,231.4381,128.6655,0,U,48908,999,28124,.2464395E-3,.20477E-3,0
PACE-1,2021-059AG,2026-07-10T23:59:24.733248,15.84551910,.00032347,97.6745,32.9101,192.6042,167.5147,0,U,48909,999,28156,.36329564E-3,.83467E-3,0
YAM-3,2021-059AN,2026-07-12T14:05:08.253312,15.49108672,.00038296,97.6991,22.2126,255.4547,104.6279,0,U,48915,999,28092,.14237504E-3,.7632E-4,0
FARADAY_PHOENIX,2021-059AX,2026-07-12T12:20:03.495840,15.86233591,.00058935,97.6770,34.5090,204.9834,155.1151,0,U,48924,999,28166,.58597851E-3,.147195E-2,0
DEMO8 (TENZING),2021-059CA,2026-07-12T12:33:41.208768,15.55955231,.00055821,97.7013,28.8895,243.2719,116.7964,0,U,48951,999,28124,.20447404E-3,.141E-3,0
FENGYUN 3E,2021-062A,2026-07-12T15:21:56.716128,14.19906171,.00023618,98.7500,196.7643,44.0338,316.1026,0,U,49008,999,26019,.5883339E-4,.81E-6,0
ISS (NAUKA),2021-066A,2026-07-12T09:52:44.546016,15.48989885,.00066981,51.6301,175.2558,286.7033,73.3220,0,U,49044,999,61070,.9492637E-4,.4782E-4,0
STARLINK-3100,2021-082Q,2026-07-12T13:01:19.468416,14.98328451,.000319,70.0005,339.6481,269.0178,91.0616,0,U,49144,999,26468,.2010962E-5,-.69E-6,0
CUTE,2021-088D,2026-07-12T06:32:02.419872,16.12201761,.000664,97.3997,295.2353,305.9522,54.1146,0,U,49263,999,26656,.11367E-2,.1203122E-1,.9661E-3
2021-091B,2021-091B,2026-07-12T15:01:16.274784,15.18673825,.00121759,97.4479,20.8156,318.2341,41.7963,0,U,49316,999,26284,.68648089E-4,.1357E-4,0
SDGSAT 1,2021-100A,2026-07-12T15:43:35.145696,15.19232381,.00094889,97.2626,239.6306,171.7883,188.3509,0,U,49387,999,25978,.10382156E-3,.2123E-4,0
TEIKYOSAT-4 (OORURI),2021-102B,2026-07-12T13:47:44.069568,15.09592692,.00115112,97.3666,222.0712,197.8215,162.2613,0,U,49396,999,25655,.66468515E-4,.1008E-4,0
Z-SAT,2021-102E,2026-07-12T15:16:32.939904,15.18451624,.00173257,97.3319,228.1875,153.1096,207.1041,0,U,49399,999,25730,.15439425E-3,.3125E-4,0
HIBARI,2021-102F,2026-07-12T02:06:27.768096,15.32235957,.00133211,97.3229,238.7127,110.8335,249.4335,0,U,49400,999,25800,.23231463E-3,.7172E-4,0
KOSEN-1,2021-102H,2026-07-12T13:36:41.393664,15.27190020,.00153106,97.3174,235.2343,115.8544,244.4276,0,U,49402,999,25789,.17208771E-3,.4528E-4,0
GLOBAL-14,2021-106A,2026-07-12T04:43:11.189856,15.51722687,.00172901,42.0026,142.3164,204.0869,155.9168,0,U,49469,999,26201,.26617253E-3,.16087E-3,0
GAOFEN-3 02,2021-109A,2026-07-12T15:35:02.884416,14.42219454,.00013429,98.4094,201.3843,281.9567,78.1472,0,U,49495,999,24398,-.24562056E-4,-.124E-5,0
GLOBAL-12,2021-115BA,2026-07-12T12:50:38.757120,15.55217842,.00028316,53.1953,282.5147,66.9953,293.1358,0,U,49772,999,25984,.36077828E-3,.24414E-3,0
GLOBAL-13,2021-115BB,2026-07-12T13:57:24.998976,15.47040560,.00008866,53.1982,293.7797,154.1468,205.9586,0,U,49773,999,25969,.24201477E-3,.12018E-3,0
GLOBAL-17,2021-120A,2026-07-12T13:21:32.451840,15.53624572,.00134118,41.9943,257.9699,70.2333,289.9957,0,U,49949,999,25884,.28355268E-3,.18358E-3,0
GLOBAL-16,2021-120B,2026-07-12T12:58:53.501664,15.51399124,.00115644,41.9943,262.2834,59.6715,300.5272,0,U,49950,999,25878,.27623827E-3,.16457E-3,0
XW-3 (CAS-9),2021-131B,2026-07-12T14:24:57.049920,14.41380603,.00047428,98.4986,285.8536,37.5926,322.5593,0,U,50466,999,23877,.10286851E-3,.289E-5,0
ION SCV-004,2022-002K,2026-07-12T14:25:31.217664,15.30692459,.00055946,97.2823,250.7840,259.2728,100.7883,0,U,50993,999,24918,.10662372E-3,.3089E-4,0
ETV-A1,2022-002CE,2026-07-12T14:22:53.477184,15.41199178,.00037066,97.2872,259.8379,237.7792,122.3096,0,U,51060,999,24975,.17672131E-3,.7251E-4,0
BRO-5,2022-002CF,2026-07-12T15:41:45.322656,15.48778426,.00050997,97.2994,267.5714,213.2437,146.8495,0,U,51061,999,25019,.35994657E-3,.19263E-3,0
LUDI TANCE 1-01A (L-SAR 01A),2022-007A,2026-07-12T14:13:47.708256,14.88417602,.00016151,97.8111,200.6521,91.2115,268.9287,0,U,51284,999,24225,.37829141E-4,.296E-5,0
LUDI TANCE 1-01B (L-SAR 01B),2022-018A,2026-07-12T15:02:11.641632,14.88412125,.00016247,97.8109,200.6833,91.2698,268.8704,0,U,51822,999,23749,.40883587E-4,.325E-5,0
